First least square run :: 
26510.7733801  0.0345406345387  2.07231720069e-10  0.66  39.9190189299  
Convergence moindre carre incomplete -> relance
Second least square run :: 
26479.6191952  0.027733510325  1.36769670413e-09  0.66  39.065822263  
 
 Sommes des résidus par camera : 
              camera               sigma                   s                   n                 Sum        Sum expected                  s'
              ENSE02       1.21532082574      0.432915441403                  17       24.4289982753       6.06791885042       2.24419582048
              FRNP03      0.891362699946      0.181428759473                  18       14.6368239877       10.7381017254      0.548108655413
 Sum Expected Total :: 16.8060205758
 
 Sommes des résidus par camera 2 : 
              camera               sigma                   s                   n                 Sum        Sum expected                  s'
              ENSE02       1.21532082574        2.2855700952                  17       1.28416156579       1.26175807346      0.344932637585
              FRNP03      0.891362699946      0.577355603508                  18        2.9301978761       2.98788606581                   0
 Sum Expected Total :: 4.24964413927
 
Parametre  de la meilleure solution par moindre carré :: 
 V  = 26487.4478707 m/s
 A  = 0.0300132255485 m²/kg
 B  = 1.0247138543e-09 m²/J
 mu = 0.66
 
S_min : 4.2143594419
 
 
 Estimation Parametre par Moyenne pondérée (si cette estimation est très différente de la précédente, cela peut être le signe d'un problème) :: 
 V  = 26483.1184667 m/s
 A  = 0.0295337359985 m²/kg
 B  = 1.02780167096e-09 m²/J
 
 Parametre Maria :: 
 gamma = 50.7609179001°
 Alpha = 178.960254366
 Beta  = 4.072106121
 
Final Mass : 0.000628853320734 %
 
         rho(Kg/m³)               Re(m)              Me(Kg)               Rf(m)              Mf(Kg)
                1500     0.0166593223775     0.0290503832011   0.000307496694726   1.82684299446e-07
                2500    0.00999559342648     0.0104581379524   0.000184498016835   6.57663478005e-08
                3500    0.00713970959034    0.00533578466959    0.00013178429774   3.35542590819e-08
                4500    0.00555310745916    0.00322782035568   0.000102498898242    2.0298255494e-08
                5500    0.00454345155749    0.00216077230421   8.38627349252e-05   1.35880883885e-08
                6500    0.00384445901019    0.00154706182728    7.0960775706e-05   9.72874967463e-09
 
Matrix of Covariance : 
    |                   Ve |                    A |                    B | 
Ve  |        5985.32120864 |       0.414171013353 |   -1.50488111724e-08 | 
A   |       0.414171013353 |    4.54210481399e-05 |   -2.97477845799e-12 | 
B   |   -1.50488111724e-08 |   -2.97477845799e-12 |    4.60150958611e-19 | 
 
 
 Time shift :: 
ENSE02 : -0.0113089041527 s
FRNP03 : 0.0113089041527 s
 
 
 Transposed Jacobian Matrix :: 
       |             Ve(m/s) |                    A |                    B | 
dx1(m) |     -0.478970546946 |   -1.32686379811e-05 |    1.16681831713e-13 | 
dx2(m) |    -0.0725627169467 |   -1.12466140422e-06 |   -4.31300097738e-14 | 
dx3(m) |      0.252562061968 |    2.64232595097e-05 |   -2.58044799335e-12 | 
dx4(m) |     0.0428715346775 |    3.50721718529e-06 |   -1.37941192211e-13 | 
 
 Propagation des Variances :: 
        |              Ve(m/s) |                    A |                    B | 
Ve(m/s) |         5280.3960576 |        0.23484975559 |   -1.26988554049e-08 | 
A       |        0.23484975559 |    1.09198582229e-05 |   -6.25174374103e-13 | 
B       |   -1.26988554049e-08 |   -6.25174374103e-13 |    3.82225442688e-20 | 
 
 Variances Totales :: 
        |              Ve(m/s) |                    A |                    B | 
Ve(m/s) |        11265.7172662 |       0.649020768943 |   -2.77476665773e-08 | 
A       |       0.649020768943 |    5.63409063628e-05 |   -3.59995283209e-12 | 
B       |   -2.77476665773e-08 |   -3.59995283209e-12 |     4.9837350288e-19 | 
 
sigma Ve : 106.140083221 m/s
sigma A  : 0.00750605797758 m^2/Kg
sigma B  : 7.05955737196e-10 m^2/J
 
sigma Me (relatif) : 75.0275037795 %
sigma Mf (relatif) : 881.053686015 %
 
A/B : 29.2893722697 MJ/Kg
sigma A/B : 21.4667299117 MJ/Kg
 
    Remarque : A/B decrit la solidité du bolide. Il doit être entre 50 et 8000 MJ/Kg 
 
 
 
 
------------------------------------------------------------------------ 
------------------------------------------------------------------------ 
------------------------------------------------------------------------ 
 
 
  ORBITE :: 
Perifocal Distance              :: 0.435757244099 AU
Eccentricity                    :: 0.735811050831
Inclination                     :: 1.95595269735 °
Longitude of the ascending node :: 279.862975371 °
Argument of periapsis           :: 288.302505721 °
Mean anomaly at epoch           :: 336.865161973 °
Epoch                           :: 2019-12-28T13:35:54.611
Semi-major axe                  :: 1.6494151079 AU
 
Moon near encounter             :: 408750.015703km   ( 235.26534805 moon radius )
Tisserand_J                     :: 3.9165131453
Tisserand_S                     :: 6.54399605075
Tisserand_U                     :: 12.3959492394
Tisserand_N                     :: 18.9928331577
 
 
  Transposed Jacobian Matrix  :: 
        |        Per dist(AU) |                  ecc |                  Inc |                 Long |                  Arg |              Mean an |                Epoch |                    a | 
dx1(km) |    0.00587554587829 |     0.00312131393297 |        -1.2871174469 |     -0.0461136298966 |      -0.992201655377 |       0.934671297564 |        19.2428798676 |      0.0422261772351 |  
dx2(km) |     0.0177070501378 |     0.00741162719082 |       0.423368776197 |     0.00428022901365 |       -2.98396072585 |        2.42379521771 |        147.442447424 |       0.116567537078 |  
dx3(km) |   -0.00540090129545 |    -0.00304635929178 |        1.31623920994 |     0.00964057750578 |        0.96671582067 |      -0.923467735378 |        31.1067273617 |     -0.0390128549833 |  
dx4(km) |    -0.0177615442222 |    -0.00577832259679 |      -0.434095385638 |     -0.0068417134516 |        2.97794584453 |       -2.47745100892 |        -143.26606679 |      -0.101095205479 |  
V(km/s) |   -0.00773915553358 |      0.0189770263267 |      -0.340585362716 |    -0.00510950242599 |     -0.0531743978851 |         2.3278190816 |        13289.5938873 |      0.0891215391441 |  
 
 Variances :: 
             |        Per dist(AU) |                  ecc |                  Inc |                 Long |                  Arg |              Mean an |             Epoch(s) |                    a | 
Per dist(AU) |   3.50036499722e-06 |   -3.10351436855e-07 |   -0.000315007336795 |   -8.61924609152e-06 |    -0.00047748924055 |    0.000228175416337 |       -1.14870307268 |    1.14406338709e-05 |  
ecc          |  -3.10351436855e-07 |    4.69852436707e-06 |   -0.000239632879291 |   -5.48145505139e-06 |   -0.000240761739307 |    0.000703030280793 |        2.84584670206 |    2.82049429451e-05 |  
Inc          |  -0.000315007336795 |   -0.000239632879291 |      0.0478973715994 |     0.00123346579977 |       0.059095893326 |     -0.0619856108784 |       -52.0616397583 |    -0.00270235313915 |  
Long         |  -8.61924609152e-06 |   -5.48145505139e-06 |     0.00123346579977 |    3.30888716809e-05 |     0.00155003401302 |    -0.00152607690789 |      -0.794923014393 |   -6.72865326431e-05 |  
Arg          |   -0.00047748924055 |   -0.000240761739307 |       0.059095893326 |     0.00155003401302 |      0.0822988085493 |     -0.0749674125798 |         -9.659325766 |    -0.00333140973255 |  
Mean an      |   0.000228175416337 |    0.000703030280793 |     -0.0619856108784 |    -0.00152607690789 |     -0.0749674125798 |       0.126877838882 |        350.018859488 |     0.00526982526974 |  
Epoch(s)     |      -1.14870307268 |        2.84584670206 |       -52.0616397583 |      -0.794923014393 |         -9.659325766 |        350.018859488 |        1989717.36039 |        13.4104499668 |  
a            |   1.14406338709e-05 |    2.82049429451e-05 |    -0.00270235313915 |   -6.72865326431e-05 |    -0.00333140973255 |     0.00526982526974 |        13.4104499668 |     0.00022017835024 |  
 
     Ecarts types :: 
Per dist(AU) :    0.00187092624045 
ecc          :    0.00216760798279 
Inc          :      0.218854681465 
Long         :    0.00575229273255 
Arg          :       0.28687768918 
Mean an      :      0.356199156206 
Epoch(s)     :       1410.57341546 
a            :     0.0148384079415 
